#dP2024  6  1  0  0  0.00000000      96 __u+U IGS20 FIT  IAC
## 2316 518400.00000000   900.00000000 60462 0.0000000000000
+  130   C01C02C03C04C05C06C07C08C09C10C11C12C13C14C16C19C20
+        C21C22C23C24C25C26C27C28C29C30C32C33C34C35C36C37C38
+        C39C40C41C42C43C44C45C46C60E02E03E04E05E07E08E09E10
+        E11E12E13E14E15E18E19E21E24E25E26E27E30E31E33E34E36
+        G01G02G03G04G05G06G07G08G09G10G11G12G13G14G15G16G17
+        G18G19G20G21G22G23G24G25G26G27G28G29G30G31G32J02J03
+        J04J07R01R02R03R04R05R06R07R08R09R10R11R12R13R14R15
+        R16R17R18R19R20R21R22R23R24R25R26  0  0  0  0  0  0
++        17 17 17 17 17  9 10 10  9 10  9  9  9  9  9  7  7
++         7  7  7  7  7  7  7  7  7  7  8  7  7  7  7  8  8
++         8  8  8  7  7  7  7  8 17  4  4  5  4  4  4  4  4
++         4  4  4  5  4  4  5  5  4  4  4  5  4  4  5  4  4
++         5  4  4  4  4  4  4  4  4  4  4  4  4  4  4  0  4
++         4  4  4  4  4  4  4  4  4  4  4  4  4  4  4 10 10
++        11 17  7  6  6  6  6 15  6  6  6 15  6  6  8  6  6
++         6  6  6  8  8  6  6 15  6  9  8  0  0  0  0  0  0
%c M  cc GPS ccc cccc cccc cccc cccc ccccc ccccc ccccc ccccc
%c cc cc ccc ccc cccc cccc cccc cccc ccccc ccccc ccccc ccccc
%f  0.0000000  0.000000000  0.00000000000  0.000000000000000
%f  0.0000000  0.000000000  0.00000000000  0.000000000000000
%i    0    0    0    0      0      0      0      0         0
%i    0    0    0    0      0      0      0      0         0
/* INFORMATION & ANALYSIS CENTER (IAC)            RAPID DATA
/* S/V CLOCKS ARE ALIGNED TO GNSS TIME                      
/* G:C1WC2W R:C1PC2P E:C1XC5X C:C2IC6I J:C1CC2S             
/* PCV:IGS20_2290 OL/AL:FES2004  NONE     YN ORB:CoN CLK:CoN
*  2024 06 01 11 15  0.00000000
PC01 -34322.650006  24449.644765   1066.617554    899.700863
PC02   4384.053269  41916.033084   1644.684881    737.483465
PC03 -14862.780693  39438.416594   1346.021038    353.309840
PC04 -39629.728889  14348.712555    639.150920   -555.567450
PC05  21811.216038  36091.781007   1105.753781   -727.926506
PC06 -13447.349083  40065.802371  -2093.124640    468.181526
PC07  -3180.884860  30644.085105 -28624.300703   -677.298426
PC08 -16472.451460  21449.573239  32265.491571   -169.935171
PC09  -9458.940011  40091.354066  -9968.855583    172.772836
PC10   5542.619518  33349.945859 -24535.631711     -8.941190
PC11  14842.309141  -8504.194086  22112.642465    591.662218
PC12  13617.055558  13386.788453  20380.005029   -252.406770
PC13  -8650.225881  23120.934586  34275.202984    437.282802
PC14  22263.744250   -785.945569 -16752.904113    913.407009
PC16 -15492.204932  39413.740134   1120.750817   -559.686261
PC19 -15557.533262   8150.759811  21717.551694   -913.283729
PC20 -25190.691721  -5590.888378  10689.430791   -527.168126
PC21  20360.579294  17311.145313   7982.131252   -971.030266
PC22   3589.661280  18071.243927  20944.222410     14.392126
PC23   8530.877779 -20021.369945  17478.010921   -783.219395
PC24  23829.001863  -2411.326879 -14347.595925    911.995045
PC25  22446.840023 -16435.466586   2300.215080    414.562872
PC26  11278.809257  12041.679950 -22523.576821   -299.536724
PC27 -10528.080975 -21411.554212 -14490.455621    320.943247
PC28   -285.084874 -27905.112560    261.362738    246.374358
PC29 -11637.371220  17958.573417 -17919.514024    289.147503
PC30 -16109.880832  -3395.430276 -22542.160088    -91.606569
PC32 -20488.132272 -17176.392452  -8027.867941   -636.592207
PC33  15547.127718  -8226.139306 -21655.362266   -962.299804
PC34  16162.708871   1519.121197  22681.997261    446.249670
PC35   1089.927034  27897.145729   -621.265450    348.868499
PC36 -22805.240364  15909.041323  -2292.684735     98.181812
PC37 -10813.445577 -12424.975238  22539.272180   -951.162912
PC38 -22341.444366  23182.248688  27205.745874    158.640407
PC39 -15395.336975  39016.147244   5492.910950     -8.547691
PC40  -6366.654364  26164.495819 -32376.992300    -72.982601
PC41  -2782.690445 -17841.556925 -21229.914295   -962.765653
PC42  25451.594507   6822.120913  -9085.988554   -444.475972
PC43  12161.447679 -17077.033141  18393.933620     73.771405
PC44  11337.821210  21153.061736  14243.027714    490.542674
PC45  -8837.373900  19920.390369 -17416.734044    -90.473293
PC46 -24011.391188   2949.721703  13878.981778   -153.097262
PC60   7288.996793  41494.614819   1585.887287     -0.994055
PE02  21913.466459 -10497.467959  16907.883565    132.009977
PE03  11143.358395 -14157.408884 -23486.109306   -117.535503
PE04   4449.827995  26722.373291  11931.679599   -410.825043
PE05  19845.810352   6456.291115 -20979.437334   4753.010472
PE07 -16852.610915 -23628.624811   5871.888561   -123.359861
PE08  -3858.642534 -26472.416304 -12682.183592   -279.951925
PE09  16760.241387  23688.344806  -5783.235767   -463.852740
PE10    601.365736  22250.796996  19498.775206   -629.312087
PE11   9147.455770  14541.883682  24090.338820   2740.354463
PE12  -7129.643711  25888.668054  12466.832590  -1063.388508
PE13  -8675.560300 -14992.044506 -24004.538309    -21.953173
PE14  -1502.594582  22202.133088 -13206.479740     56.376661
PE15   7556.452402 -25971.291964 -12014.539590   -106.292326
PE18 -11414.948117 -29089.697484   2571.647588    176.423819
PE19 -12425.306696  12092.086159  24003.021638     40.348115
PE21 -29569.451689  -1394.897554   -162.594181   -597.629419
PE24  19925.943754  13215.943161 -17473.340538   -794.603064
PE25  29551.728206   1670.391133   -237.248259      5.202758
PE26 -19834.821645   5055.149106 -21384.887215    471.159508
PE27 -20189.542048 -12997.765269  17309.098124   -364.080104
PE30   1150.126760 -16830.406499  24312.995685   -359.837026
PE31   -969.134172  16789.628899 -24352.002588    -25.139972
PE33 -19276.728617  21236.042390  -7320.743806     12.328183
PE34  19064.593021 -21592.626501   6819.614210   -114.524298
PE36  19540.035539  -4526.549631  21760.442429   -235.148010
PG01  22838.585663   8571.445749 -11274.396680    265.786042
PG02  14709.754664 -21263.775718   5824.929937   -425.773352
PG03  13789.547553 -12478.902643 -19070.519566    392.397890
PG04   5626.363628 -17657.847888 -18957.874860    373.772196
PG05 -25052.713310   5608.223805   6803.320079   -174.774772
PG06 -11161.711943  -9537.143514 -22066.535243    242.555635
PG07   2229.119376 -22804.511623  13536.953695   -106.730637
PG08  13075.228089  -8000.306080  21577.423244    208.240987
PG09  -5645.111356 -23757.188090 -10464.482472    218.068989
PG10  18618.928871  10807.960901  15975.076812    -33.837612
PG11 -18164.664225   3806.575554 -18957.680615   -675.802564
PG12 -16383.016459  11212.600490 -17901.304709   -510.368240
PG13 -16039.524957  -1717.511797  20937.236354    654.820796
PG14 -14890.727365 -13260.889381  17682.935174    414.862146
PG15 -12029.010996   9816.582022  21050.290649    165.342769
PG16      0.000000      0.000000      0.000000 999999.999999
PG17 -12915.701109 -22953.176252  -2253.472147    700.371236
PG18  -2696.050729  22379.467926  13896.859574   -619.026592
PG19 -16409.886290 -17768.568499 -11596.109258    490.227293
PG20 -26149.492099   1713.199857  -3754.518267    374.490007
PG21  16500.012153 -17345.882854  10737.964776    118.158070
PG22 -20912.844967 -10803.674276  12431.626467    -21.513443
PG23   6461.886724  14303.206495  21481.395919    239.685667
PG24 -14917.850051  20579.616035   6512.303127   -474.515671
PG25  -5779.315428  15237.114966 -21270.181654    496.687024
PG26  24511.521113   5296.605508  -9438.938225    144.018568
PG27  17853.332808   4458.724648  19014.283164    -26.538751
PG28  10362.839528  12046.427807 -21293.080118   -269.312222
PG29   1318.725736  23254.305316 -12705.379392   -596.107379
PG30  -6889.468580 -16682.940099  19549.249720   -381.290612
PG31  16831.656685    879.544297 -20826.365485   -227.611112
PG32  15725.262349  21034.358377  -4415.560480   -617.358520
PJ02 -30955.920310  15321.744539 -19524.162661     -0.249242
PJ03 -23712.881966  32881.751659  -7145.156572      0.408591
PJ04 -26595.110856  25805.505299  26017.657702     50.322427
PJ07 -25404.677419  33655.519255    -10.275156     -0.004975
PR01 -15822.774913 -17687.502369  -9373.473610     87.112656
PR02 -20803.877422 -12397.922058   7959.500450    -23.134029
PR03 -14701.456605    679.970515  20868.478798    101.253366
PR04   -709.868738  12696.374645  22146.241584    239.097928
PR05  13587.312882  18247.825367  11569.504739    132.399945
PR06  21285.820419  10792.401771  -9032.032987   -165.734044
PR07  14238.570912  -1173.473149 -21099.518077     83.625102
PR08    429.671914 -12892.660330 -21937.185885     -4.442866
PR09  20258.887921   -253.283443 -15420.649269    189.781316
PR10  23937.656167  -8769.923259  -1680.356982   -170.861589
PR11  14867.190815 -13813.045977  15454.042545     22.832680
PR12  -4797.037497  -9972.201721  23010.260294     40.801094
PR13 -18649.548481  -1450.006471  17332.575668    -47.937073
PR14 -23577.271967   9748.750319   -606.017202     26.537469
PR15 -13594.841771  13841.420883 -16543.777834     79.244605
PR16   4510.642803   9908.124883 -23054.443124     26.089499
PR17 -11013.038662  12557.855135 -19261.352158     91.946573
PR18  -6883.945658  23901.401046  -5762.046302    144.889716
PR19   -791.149065  23789.750291   9158.637567   -278.715038
PR20   8705.289917   7796.434916  22680.712422   -113.769949
PR21  11073.901297 -12321.138129  19399.954127   -105.611775
PR22   7138.225503 -24047.034340   4621.350271    107.317681
PR23  -1412.162338 -22396.988139 -12136.952451   -122.565754
PR24  -9662.317839  -6875.859461 -22575.490119    -58.122012
PR25  11736.988167 -12384.075623  18971.023995    -18.847821
PR26   1502.943318 -12196.081709 -22333.687724     -7.212441
EOF
